{
  "type": "FeatureCollection",
  "features": [
    {
      "type": "Feature",
      "properties": {
        "norad_id": 38220,
        "name": "COSMOS 2251 DEB",
        "group": "cosmos-2251-debris",
        "lat": -1.7922605863440493,
        "lon": 86.96038144895121,
        "alt_km": 595.3422519612632,
        "timestamp": "2025-12-03T04:52:30.036930+00:00",
        "meta_object_name": "COSMOS 2251 DEB",
        "meta_object_id": "1993-036BTL",
        "meta_epoch": "2025-12-02T14:23:55.852800",
        "meta_mean_motion": 14.91852197,
        "meta_eccentricity": 0.0003685,
        "meta_inclination": 74.0146,
        "meta_ra_of_asc_node": 88.6858,
        "meta_arg_of_pericenter": 99.6245,
        "meta_mean_anomaly": 260.5354,
        "meta_ephemeris_type": 0,
        "meta_classification_type": "U",
        "meta_norad_cat_id": 38220,
        "meta_element_set_no": 999,
        "meta_rev_at_epoch": 71219,
        "meta_bstar": 0.0045511067,
        "meta_mean_motion_dot": 0.00046254,
        "meta_mean_motion_ddot": 0,
        "tle_line1": "1 38220U 93036BTL 25336.59995200  .00046254  00000+0  45511-2 0  9992",
        "tle_line2": "2 38220  74.0146  88.6858 0003685  99.6245 260.5354 14.91852197712191"
      },
      "geometry": {
        "type": "Point",
        "coordinates": [
          86.96038144895121,
          -1.7922605863440493
        ]
      }
    },
    {
      "type": "Feature",
      "properties": {
        "norad_id": 38479,
        "name": "COSMOS 2251 DEB",
        "group": "cosmos-2251-debris",
        "lat": -7.655953036590952,
        "lon": 24.10537458434478,
        "alt_km": 801.1235446820119,
        "timestamp": "2025-12-03T04:52:30.036940+00:00",
        "meta_object_name": "COSMOS 2251 DEB",
        "meta_object_id": "1993-036BTP",
        "meta_epoch": "2025-11-15T12:46:06.719808",
        "meta_mean_motion": 14.37875238,
        "meta_eccentricity": 0.00846922,
        "meta_inclination": 74.0077,
        "meta_ra_of_asc_node": 234.4912,
        "meta_arg_of_pericenter": 348.2771,
        "meta_mean_anomaly": 195.3627,
        "meta_ephemeris_type": 0,
        "meta_classification_type": "U",
        "meta_norad_cat_id": 38479,
        "meta_element_set_no": 999,
        "meta_rev_at_epoch": 64296,
        "meta_bstar": 0.00281077,
        "meta_mean_motion_dot": 8.824e-05,
        "meta_mean_motion_ddot": 0,
        "tle_line1": "1 38479U 93036BTP 25319.53202222  .00008824  00000+0  28108-2 0  9992",
        "tle_line2": "2 38479  74.0077 234.4912 0084692 348.2771 195.3627 14.37875238642962"
      },
      "geometry": {
        "type": "Point",
        "coordinates": [
          24.10537458434478,
          -7.655953036590952
        ]
      }
    },
    {
      "type": "Feature",
      "properties": {
        "norad_id": 38481,
        "name": "COSMOS 2251 DEB",
        "group": "cosmos-2251-debris",
        "lat": 36.8390313345935,
        "lon": -168.42871221736095,
        "alt_km": 1078.852466158848,
        "timestamp": "2025-12-03T04:52:30.036951+00:00",
        "meta_object_name": "COSMOS 2251 DEB",
        "meta_object_id": "1993-036BTR",
        "meta_epoch": "2025-11-30T21:06:34.190496",
        "meta_mean_motion": 13.94733975,
        "meta_eccentricity": 0.02337783,
        "meta_inclination": 73.9329,
        "meta_ra_of_asc_node": 28.0528,
        "meta_arg_of_pericenter": 330.587,
        "meta_mean_anomaly": 28.2266,
        "meta_ephemeris_type": 0,
        "meta_classification_type": "U",
        "meta_norad_cat_id": 38481,
        "meta_element_set_no": 999,
        "meta_rev_at_epoch": 58895,
        "meta_bstar": 0.0013592661,
        "meta_mean_motion_dot": 2.261e-05,
        "meta_mean_motion_ddot": 0,
        "tle_line1": "1 38481U 93036BTR 25334.87956239  .00002261  00000+0  13593-2 0  9994",
        "tle_line2": "2 38481  73.9329  28.0528 0233778 330.5870  28.2266 13.94733975588952"
      },
      "geometry": {
        "type": "Point",
        "coordinates": [
          -168.42871221736095,
          36.8390313345935
        ]
      }
    },
    {
      "type": "Feature",
      "properties": {
        "norad_id": 38483,
        "name": "COSMOS 2251 DEB",
        "group": "cosmos-2251-debris",
        "lat": 19.903901371346244,
        "lon": -157.04244188938006,
        "alt_km": 721.4436376796175,
        "timestamp": "2025-12-03T04:52:30.036961+00:00",
        "meta_object_name": "COSMOS 2251 DEB",
        "meta_object_id": "1993-036BTT",
        "meta_epoch": "2025-11-30T10:35:51.419040",
        "meta_mean_motion": 14.2869489,
        "meta_eccentricity": 0.01113545,
        "meta_inclination": 74.2627,
        "meta_ra_of_asc_node": 33.7569,
        "meta_arg_of_pericenter": 143.1875,
        "meta_mean_anomaly": 217.699,
        "meta_ephemeris_type": 0,
        "meta_classification_type": "U",
        "meta_norad_cat_id": 38483,
        "meta_element_set_no": 999,
        "meta_rev_at_epoch": 63302,
        "meta_bstar": 0.00092192588,
        "meta_mean_motion_dot": 2.455e-05,
        "meta_mean_motion_ddot": 0,
        "tle_line1": "1 38483U 93036BTT 25334.44156735  .00002455  00000+0  92193-3 0  9991",
        "tle_line2": "2 38483  74.2627  33.7569 0111354 143.1875 217.6990 14.28694890633022"
      },
      "geometry": {
        "type": "Point",
        "coordinates": [
          -157.04244188938006,
          19.903901371346244
        ]
      }
    },
    {
      "type": "Feature",
      "properties": {
        "norad_id": 38485,
        "name": "COSMOS 2251 DEB",
        "group": "cosmos-2251-debris",
        "lat": 59.92975778571973,
        "lon": -178.91463559630162,
        "alt_km": 32.22629771276206,
        "timestamp": "2025-12-03T04:52:30.036972+00:00",
        "meta_object_name": "COSMOS 2251 DEB",
        "meta_object_id": "1993-036BTV",
        "meta_epoch": "2025-11-14T09:18:27.993600",
        "meta_mean_motion": 15.68613644,
        "meta_eccentricity": 0.00102471,
        "meta_inclination": 73.981,
        "meta_ra_of_asc_node": 194.9886,
        "meta_arg_of_pericenter": 147.6012,
        "meta_mean_anomaly": 212.5842,
        "meta_ephemeris_type": 0,
        "meta_classification_type": "U",
        "meta_norad_cat_id": 38485,
        "meta_element_set_no": 999,
        "meta_rev_at_epoch": 17189,
        "meta_bstar": 0.008021323,
        "meta_mean_motion_dot": 0.01011848,
        "meta_mean_motion_ddot": 0,
        "tle_line1": "1 38485U 93036BTV 25318.38782400  .01011848  00000+0  80213-2 0  9998",
        "tle_line2": "2 38485  73.9810 194.9886 0010247 147.6012 212.5842 15.68613644171892"
      },
      "geometry": {
        "type": "Point",
        "coordinates": [
          -178.91463559630162,
          59.92975778571973
        ]
      }
    },
    {
      "type": "Feature",
      "properties": {
        "norad_id": 38486,
        "name": "COSMOS 2251 DEB",
        "group": "cosmos-2251-debris",
        "lat": 57.22467950606799,
        "lon": -109.88198063272266,
        "alt_km": 633.6084902276516,
        "timestamp": "2025-12-03T04:52:30.036982+00:00",
        "meta_object_name": "COSMOS 2251 DEB",
        "meta_object_id": "1993-036BTW",
        "meta_epoch": "2025-12-01T23:18:40.096224",
        "meta_mean_motion": 14.72693828,
        "meta_eccentricity": 0.00300221,
        "meta_inclination": 73.9411,
        "meta_ra_of_asc_node": 225.9531,
        "meta_arg_of_pericenter": 11.225,
        "meta_mean_anomaly": 1.4037,
        "meta_ephemeris_type": 0,
        "meta_classification_type": "U",
        "meta_norad_cat_id": 38486,
        "meta_element_set_no": 999,
        "meta_rev_at_epoch": 75276,
        "meta_bstar": 0.0031614805,
        "meta_mean_motion_dot": 0.00020338,
        "meta_mean_motion_ddot": 0,
        "tle_line1": "1 38486U 93036BTW 25335.97129741  .00020338  00000+0  31615-2 0  9991",
        "tle_line2": "2 38486  73.9411 225.9531 0030022  11.2250   1.4037 14.72693828752763"
      },
      "geometry": {
        "type": "Point",
        "coordinates": [
          -109.88198063272266,
          57.22467950606799
        ]
      }
    },
    {
      "type": "Feature",
      "properties": {
        "norad_id": 38487,
        "name": "COSMOS 2251 DEB",
        "group": "cosmos-2251-debris",
        "lat": 39.75568835083483,
        "lon": -140.0398568574964,
        "alt_km": 513.3241484634491,
        "timestamp": "2025-12-03T04:52:30.036993+00:00",
        "meta_object_name": "COSMOS 2251 DEB",
        "meta_object_id": "1993-036BTX",
        "meta_epoch": "2025-11-25T23:36:21.750048",
        "meta_mean_motion": 15.15423903,
        "meta_eccentricity": 0.00258162,
        "meta_inclination": 73.973,
        "meta_ra_of_asc_node": 68.8809,
        "meta_arg_of_pericenter": 242.4784,
        "meta_mean_anomaly": 117.3787,
        "meta_ephemeris_type": 0,
        "meta_classification_type": "U",
        "meta_norad_cat_id": 38487,
        "meta_element_set_no": 999,
        "meta_rev_at_epoch": 66546,
        "meta_bstar": 0.0025488114,
        "meta_mean_motion_dot": 0.00048866,
        "meta_mean_motion_ddot": 0,
        "tle_line1": "1 38487U 93036BTX 25329.98358507  .00048866  00000+0  25488-2 0  9997",
        "tle_line2": "2 38487  73.9730  68.8809 0025816 242.4784 117.3787 15.15423903665467"
      },
      "geometry": {
        "type": "Point",
        "coordinates": [
          -140.0398568574964,
          39.75568835083483
        ]
      }
    }
  ]
}